OBJECT_NAME,OBJECT_ID,EPOCH,MEAN_MOTION,ECCENTRICITY,INCLINATION,RA_OF_ASC_NODE,ARG_OF_PERICENTER,MEAN_ANOMALY,EPHEMERIS_TYPE,CLASSIFICATION_TYPE,NORAD_CAT_ID,ELEMENT_SET_NO,REV_AT_EPOCH,BSTAR,MEAN_MOTION_DOT,MEAN_MOTION_DDOT
BIRKELAND,2023-001G,2026-06-17T22:13:42.054816,15.40087054,.00083522,97.3343,236.8979,103.1548,257.0631,0,U,55015,999,19246,.18481725E-3,.7318E-4,0
ION SCV-008,2023-001AU,2026-06-17T22:59:33.011808,15.28583857,.00149368,97.5714,265.2886,15.9655,344.2052,0,U,55051,999,19145,.19040152E-3,.5232E-4,0
ION SCV-007,2023-001BD,2026-06-17T17:45:11.430432,14.77553885,.00117603,97.9007,231.7437,340.3707,19.7049,0,U,55060,999,18633,.5365071E-4,.332E-5,0
HUYGENS,2023-001CN,2026-06-17T22:13:49.484352,15.40087518,.00110511,97.3247,236.1269,84.1154,276.1352,0,U,55093,999,19248,.18725032E-3,.7422E-4,0
SHARJAHSAT-1,2023-001CZ,2026-06-17T22:51:43.843392,15.49088559,.00070309,97.3170,237.7290,101.0554,259.1488,0,U,55104,999,19261,.32321051E-3,.1748E-3,0
HORUS 1,2023-025A,2026-06-17T22:35:17.901888,15.23269127,.00014008,97.3461,243.5213,149.3126,210.8193,0,U,55690,999,18416,.20327111E-3,.4748E-4,0
HORUS 2,2023-032A,2026-06-17T23:26:28.791168,15.23433608,.00022879,97.3534,244.3618,104.6611,255.4880,0,U,55844,999,18160,.19382503E-3,.4547E-4,0
GLOBAL-19,2023-041B,2026-06-15T09:50:42.386784,15.37989803,.00091226,41.9998,212.2489,350.7083,9.3586,0,U,55982,999,18165,.25105828E-3,.935E-4,0
BRO-9,2023-054H,2026-06-17T01:46:38.500608,16.06773771,.0008433,97.2919,86.6249,169.1361,191.0105,0,U,56185,999,17907,.98118242E-3,.742204E-2,.28586556E-3
ION SCV-010,2023-054Q,2026-06-17T18:00:03.750624,15.26200708,.00122417,97.3779,58.2443,195.1019,164.9856,0,U,56192,999,17628,.14278027E-3,.3627E-4,0
TELEOS-2,2023-057C,2026-06-17T18:08:34.658016,14.96411162,.00001818,9.9867,200.0219,229.2865,130.7333,0,U,56310,999,17288,.4576E-7,.688E-5,0
SNIPE 4,2023-072B,2026-06-17T22:15:45.665568,15.42376029,.00043176,97.5245,14.9558,335.2574,24.8465,0,U,56744,999,17022,.40950741E-3,.17608E-3,0
SNIPE 2,2023-072C,2026-06-17T23:14:20.098752,15.46881522,.00039917,97.5240,18.0468,11.5498,348.5843,0,U,56745,999,17036,.43056891E-3,.2159E-3,0
2023-072G,2023-072G,2026-06-17T23:12:18.113184,15.50611739,.00026601,97.4899,16.8495,6.0575,354.0708,0,U,56749,999,17058,.45113357E-3,.25785E-3,0
GEISAT PRECURSOR,2023-084C,2026-06-17T22:28:00.242688,15.34659753,.00048604,97.6230,309.9134,355.0208,5.0986,0,U,56934,999,16764,.19001781E-3,.6299E-4,0
BLACKJACK ACES-3,2023-084U,2026-06-17T19:53:55.047840,15.18476062,.00025192,97.6218,304.0244,35.9997,324.1406,0,U,56950,999,16726,.20306528E-3,.4115E-4,0
BLACKJACK ACES-2,2023-084Z,2026-06-17T10:33:19.462176,15.18546922,.00010284,97.6216,303.7169,75.6605,284.4743,0,U,56955,999,16721,.25414225E-3,.5179E-4,0
BLACKJACK ACES-1,2023-084AA,2026-06-17T21:20:06.054144,15.18612578,.00012755,97.6205,303.9434,104.4278,255.7098,0,U,56956,999,11700,.25686258E-3,.5245E-4,0
ION SCV-011,2023-084AB,2026-06-17T14:09:27.046368,15.28849179,.0007972,98.1377,355.9060,44.3815,315.8061,0,U,56957,999,16587,.15244E-3,.4188E-4,0
GHOST-3,2023-084AC,2026-06-17T20:59:26.195136,15.47899399,.00054899,97.6219,317.4828,290.9998,69.0664,0,U,56958,999,16812,.28921388E-3,.1498E-3,0
TOMORROW-R2,2023-084AG,2026-06-17T13:01:01.662240,16.09179659,.0008813,97.6065,332.8368,242.9726,117.0657,0,U,56962,999,16911,.71072E-3,.626944E-2,.20692E-3
AFR-1,2023-084AJ,2026-06-17T22:51:29.208096,15.28560617,.00098642,97.6280,305.6613,344.1028,15.9900,0,U,56964,999,16734,.13373373E-3,.364E-4,0
METEOR-M2 3,2023-091A,2026-06-17T22:35:55.891968,14.24046746,.00043468,98.6099,223.9043,153.7654,206.3746,0,U,57166,999,15462,-.30099346E-4,-.112E-5,0
UMKA 1 (RS40S),2023-091G,2026-06-17T22:46:56.607456,15.20826055,.00142479,97.5047,227.6436,115.2479,245.0235,0,U,57172,999,16412,.22029709E-3,.4802E-4,0
2023-091H,2023-091H,2026-06-17T21:40:21.304704,15.28650343,.00112595,97.5045,232.1008,110.9054,249.3392,0,U,57173,999,16441,.35047139E-3,.9709E-4,0
2023-091J,2023-091J,2026-06-17T21:58:14.092032,15.13931215,.00143617,97.5052,222.0016,140.6741,219.5536,0,U,57174,999,16374,.16749324E-3,.2976E-4,0
CUBEBEL 2 (EU11S),2023-091K,2026-06-17T21:41:15.602784,15.29167433,.00112978,97.5048,232.1271,112.4605,247.7833,0,U,57175,999,16441,.38125279E-3,.10739E-3,0
SITRO-AIS 5 (KATYS),2023-091L,2026-06-17T22:05:31.683840,15.29471964,.00127679,97.5057,232.8268,101.1566,259.1111,0,U,57176,999,16445,.36815252E-3,.1047E-3,0
ZORKIY-2M 1,2023-091M,2026-06-17T22:27:17.124768,15.20912267,.00148039,97.5088,227.8986,112.8226,247.4575,0,U,57177,999,16411,.25747862E-3,.5641E-4,0
CUBESX-HSE 3 (RS42S),2023-091N,2026-06-17T21:25:28.066080,15.31230297,.00120296,97.5089,234.4887,92.6817,267.5801,0,U,57178,999,16453,.35294132E-3,.10594E-3,0
