BIRKELAND               
1 55015U 23001G   26168.92618119  .00007318  00000+0  18482-3 0  9996
2 55015  97.3343 236.8979 0008352 103.1548 257.0631 15.40087054192461
ION SCV-008             
1 55051U 23001AU  26168.95802097  .00005232  00000+0  19040-3 0  9993
2 55051  97.5714 265.2886 0014936  15.9655 344.2052 15.28583857191454
ION SCV-007             
1 55060U 23001BD  26168.73971563  .00000332  00000+0  53651-4 0  9997
2 55060  97.9007 231.7437 0011760 340.3707  19.7049 14.77553885186330
HUYGENS                 
1 55093U 23001CN  26168.92626718  .00007422  00000+0  18725-3 0  9992
2 55093  97.3247 236.1269 0011051  84.1154 276.1352 15.40087518192485
SHARJAHSAT-1            
1 55104U 23001CZ  26168.95259078  .00017480  00000+0  32321-3 0  9992
2 55104  97.3170 237.7290 0007030 101.0554 259.1488 15.49088559192610
HORUS 1                 
1 55690U 23025A   26168.94117942  .00004748  00000+0  20327-3 0  9996
2 55690  97.3461 243.5213 0001400 149.3126 210.8193 15.23269127184160
HORUS 2                 
1 55844U 23032A   26168.97672212  .00004547  00000+0  19383-3 0  9991
2 55844  97.3534 244.3618 0002287 104.6611 255.4880 15.23433608181608
GLOBAL-19               
1 55982U 23041B   26166.41021281  .00009350  00000+0  25106-3 0  9992
2 55982  41.9998 212.2489 0009122 350.7083   9.3586 15.37989803181654
BRO-9                   
1 56185U 23054H   26168.07405672  .00742204  28587-3  98118-3 0  9995
2 56185  97.2919  86.6249 0008433 169.1361 191.0105 16.06773771179070
ION SCV-010             
1 56192U 23054Q   26168.75004341  .00003627  00000+0  14278-3 0  9996
2 56192  97.3779  58.2443 0012241 195.1019 164.9856 15.26200708176283
TELEOS-2                
1 56310U 23057C   26168.75595669  .00000688  00000+0  45760-7 0  9997
2 56310   9.9867 200.0219 0000181 229.2865 130.7333 14.96411162172885
SNIPE 4                 
1 56744U 23072B   26168.92761187  .00017608  00000+0  40951-3 0  9997
2 56744  97.5245  14.9558 0004317 335.2574  24.8465 15.42376029170226
SNIPE 2                 
1 56745U 23072C   26168.96828818  .00021590  00000+0  43057-3 0  9992
2 56745  97.5240  18.0468 0003991  11.5498 348.5843 15.46881522170367
2023-072G               
1 56749U 23072G   26168.96687631  .00025785  00000+0  45113-3 0  9997
2 56749  97.4899  16.8495 0002660   6.0575 354.0708 15.50611739170585
GEISAT PRECURSOR        
1 56934U 23084C   26168.93611392  .00006299  00000+0  19002-3 0  9991
2 56934  97.6230 309.9134 0004860 355.0208   5.0986 15.34659753167646
BLACKJACK ACES-3        
1 56950U 23084U   26168.82910935  .00004115  00000+0  20307-3 0  9997
2 56950  97.6218 304.0244 0002519  35.9997 324.1406 15.18476062167268
BLACKJACK ACES-2        
1 56955U 23084Z   26168.43980859  .00005179  00000+0  25414-3 0  9996
2 56955  97.6216 303.7169 0001028  75.6605 284.4743 15.18546922167214
BLACKJACK ACES-1        
1 56956U 23084AA  26168.88895896  .00005245  00000+0  25686-3 0  9997
2 56956  97.6205 303.9434 0001275 104.4278 255.7098 15.18612578117008
ION SCV-011             
1 56957U 23084AB  26168.58989637  .00004188  00000+0  15244-3 0  9996
2 56957  98.1377 355.9060 0007972  44.3815 315.8061 15.28849179165872
GHOST-3                 
1 56958U 23084AC  26168.87460874  .00014980  00000+0  28921-3 0  9993
2 56958  97.6219 317.4828 0005489 290.9998  69.0664 15.47899399168127
TOMORROW-R2             
1 56962U 23084AG  26168.54238035  .00626944  20692-3  71072-3 0  9991
2 56962  97.6065 332.8368 0008813 242.9726 117.0657 16.09179659169116
AFR-1                   
1 56964U 23084AJ  26168.95242139  .00003640  00000+0  13373-3 0  9997
2 56964  97.6280 305.6613 0009864 344.1028  15.9900 15.28560617167343
METEOR-M2 3             
1 57166U 23091A   26168.94161912 -.00000112  00000+0 -30099-4 0  9996
2 57166  98.6099 223.9043 0004346 153.7654 206.3746 14.24046746154623
UMKA 1 (RS40S)          
1 57172U 23091G   26168.94926629  .00004802  00000+0  22030-3 0  9990
2 57172  97.5047 227.6436 0014247 115.2479 245.0235 15.20826055164122
2023-091H               
1 57173U 23091H   26168.90302436  .00009709  00000+0  35047-3 0  9994
2 57173  97.5045 232.1008 0011259 110.9054 249.3392 15.28650343164414
2023-091J               
1 57174U 23091J   26168.91544088  .00002976  00000+0  16749-3 0  9994
2 57174  97.5052 222.0016 0014361 140.6741 219.5536 15.13931215163748
CUBEBEL 2 (EU11S)       
1 57175U 23091K   26168.90365281  .00010739  00000+0  38125-3 0  9998
2 57175  97.5048 232.1271 0011297 112.4605 247.7833 15.29167433164418
SITRO-AIS 5 (KATYS)     
1 57176U 23091L   26168.92050560  .00010470  00000+0  36815-3 0  9998
2 57176  97.5057 232.8268 0012767 101.1566 259.1111 15.29471964164453
ZORKIY-2M 1             
1 57177U 23091M   26168.93561487  .00005641  00000+0  25748-3 0  9992
2 57177  97.5088 227.8986 0014803 112.8226 247.4575 15.20912267164118
CUBESX-HSE 3 (RS42S)    
1 57178U 23091N   26168.89268595  .00010594  00000+0  35294-3 0  9992
2 57178  97.5089 234.4887 0012029  92.6817 267.5801 15.31230297164532
